NIMIQ 5                 
1 35873U 09050A   22013.51956899 -.00000243  00000+0  00000+0 0  9998
2 35873   0.0343 283.3457 0003125  18.2986 285.6623  1.00271935 45150
AMAZONAS 2              
1 35942U 09054A   22013.52613616 -.00000268  00000+0  00000+0 0  9994
2 35942   0.0312 134.8641 0001307 134.0250 332.5038  1.00271335 44985
COMSATBW-1              
1 35943U 09054B   22013.51138285  .00000038  00000+0  00000+0 0  9992
2 35943   0.0694  95.1482 0002471 191.0728  73.8445  1.00270554 45101
NSS-12                  
1 36032U 09058A   22013.51016179  .00000085  00000+0  00000+0 0  9995
2 36032   0.0097   8.2545 0002993 290.7619  54.5858  1.00273665 44714
THOR 6                  
1 36033U 09058B   22013.35491321  .00000004  00000+0  00000+0 0  9995
2 36033   0.0310 247.0672 0002433  72.7984 279.8500  1.00272872 44804
INTELSAT 14 (IS-14)     
1 36097U 09064A   22013.48975271 -.00000259  00000+0  00000+0 0  9990
2 36097   0.0177  53.7042 0002739 242.9298 307.6066  1.00272527 44417
EUTELSAT 36B            
1 36101U 09065A   22013.29063332  .00000169  00000+0  00000+0 0  9991
2 36101   0.0640  13.3009 0004727 279.2095 320.7273  1.00271570 44514
INTELSAT 15 (IS-15)     
1 36106U 09067A   22013.51574376 -.00000171  00000+0  00000+0 0  9992
2 36106   0.0112 345.5603 0002422 309.5000  88.7106  1.00270344 25025
WGS F3 (USA 211)        
1 36108U 09068A   22013.55089726  .00000065  00000+0  00000+0 0  9990
2 36108   0.1171  96.3486 0000515 182.1547 212.5957  1.00269189 30410
DIRECTV 12              
1 36131U 09075A   22013.56785356 -.00000089  00000+0  00000+0 0  9994
2 36131   0.0518 214.1239 0000438 129.9064 230.6853  1.00273267 30365
BEIDOU 3                
1 36287U 10001A   22013.59851392 -.00000268  00000+0  00000+0 0  9993
2 36287   1.8203  46.0613 0001504  49.8705  12.9957  1.00273081 43962
RADUGA-1M 2             
1 36358U 10002A   22013.44396310 -.00000171  00000+0  00000+0 0  9994
2 36358   0.0742 253.0803 0002831  23.0084  81.6291  1.00273570 33886
SDO                     
1 36395U 10005A   22013.30850937 -.00000081  00000+0  00000+0 0  9993
2 36395  31.3587 111.7510 0001726 225.4408 144.5136  1.00269465 43860
INTELSAT 16 (IS-16)     
1 36397U 10006A   22013.51786928 -.00000230  00000+0  00000+0 0  9993
2 36397   0.0142   8.5573 0002172 280.5961 294.0348  1.00270787 43456
GOES 15                 
1 36411U 10008A   22013.59516663  .00000070  00000+0  00000+0 0  9998
2 36411   0.1022 270.7849 0000825  47.0887 241.0760  1.00269922 43477
ECHOSTAR 14             
1 36499U 10010A   22013.55420074  .00000014  00000+0  00000+0 0  9991
2 36499   0.0215  37.8694 0002931 255.3874 260.3635  1.00272385 30351
SES-1                   
1 36516U 10016A   22013.56892219 -.00000100  00000+0  00000+0 0  9999
2 36516   0.0114  46.6444 0002661 249.0425 281.1270  1.00272245 42840
ASTRA 3B                
1 36581U 10021A   22013.50335876  .00000151  00000+0  00000+0 0  9997
2 36581   0.0480  52.4985 0004162 227.4434  37.7078  1.00271556 42677
COMSATBW-2              
1 36582U 10021B   22013.21431731  .00000103  00000+0  00000+0 0  9990
2 36582   0.0250  80.9435 0002437 226.4094 255.6992  1.00279304 42757
BADR-5                  
1 36592U 10025A   22013.50396931  .00000159  00000+0  00000+0 0  9990
2 36592   0.0259 122.0504 0001835 118.4867  79.8491  1.00276341 37012
COMS 1                  
1 36744U 10032A   22013.52437837 -.00000331  00000+0  00000+0 0  9993
2 36744   0.6857  96.1791 0001165 201.5141 132.2096  1.00270354 34880
ARABSAT-5A              
1 36745U 10032B   22013.50484149  .00000167  00000+0  00000+0 0  9996
2 36745   0.0534  36.0276 0002325 249.8252  39.3119  1.00271459 42424
ECHOSTAR 15             
1 36792U 10034A   22013.52613645 -.00000268  00000+0  00000+0 0  9990
2 36792   0.0147 338.7573 0002344 286.4953 335.4808  1.00271935 42136
BEIDOU 5                
1 36828U 10036A   22013.37671778 -.00000053  00000+0  00000+0 0  9998
2 36828  54.1869 177.6538 0027123 177.8536 359.7244  1.00291571 42029
NILESAT 201             
1 36830U 10037A   22013.42556003 -.00000044  00000+0  00000+0 0  9991
2 36830   0.0537 195.9748 0003400 110.8073 312.2726  1.00271360 42163
RASCOM-QAF 1R           
1 36831U 10037B   22013.21222407  .00000032  00000+0  00000+0 0  9993
2 36831   0.0415  96.3935 0006956 188.7740 266.7787  1.00271404 42096
AEHF-1 (USA 214)        
1 36868U 10039A   22013.35604705  .00000036  00000+0  00000+0 0  9999
2 36868   4.1490  88.8893 0000531   9.4783 146.6216  1.00274708 37459
CHINASAT 6A (ZX 6A)     
1 37150U 10042A   22012.77410334 -.00000343  00000+0  00000+0 0  9998
2 37150   0.0575 110.5516 0001213 344.2554  60.7202  1.00260077 41698
QZS-1 (MICHIBIKI-1)     
1 37158U 10045A   22012.62566567 -.00000149  00000+0  00000+0 0  9997
2 37158  42.1769 135.5497 0760000 270.4435  74.6246  1.00270121 41500
XM-5                    
1 37185U 10053A   22013.49316229 -.00000009  00000+0  00000+0 0  9995
2 37185   0.0523 146.2646 0000773 318.8935  70.1068  1.00273699 41283
BSAT-3B                 
1 37207U 10056B   22013.52071521 -.00000337  00000+0  00000+0 0  9994
2 37207   0.0719 307.9100 0004876   6.0510  96.2979  1.00270303 35911
BEIDOU 6                
1 37210U 10057A   22013.63505744 -.00000099  00000+0  00000+0 0  9995
2 37210   0.8919  50.4575 0006049 163.6541 287.5320  1.00273659 41086
SKYTERRA 1              
1 37218U 10061A   22013.56899317 -.00000105  00000+0  00000+0 0  9990
2 37218   2.2906  26.5109 0002304 265.8310 284.1849  1.00271974 40998
ZHONGXING-20A           
1 37234U 10064A   22013.59572294 -.00000339  00000+0  00000+0 0  9995
2 37234   2.2638  90.3560 0002749 227.4447 136.1115  1.00269732 40830
HYLAS 1                 
1 37237U 10065A   22013.51462793 -.00000214  00000+0  00000+0 0  9995
2 37237   1.5294  91.8862 0002422 200.3045 285.2510  1.00272845 40784
INTELSAT 17 (IS-17)     
1 37238U 10065B   22013.51190616  .00000012  00000+0  00000+0 0  9993
2 37238   0.0153 106.7139 0002580 193.0668  63.4498  1.00271052 37034
BEIDOU 7                
1 37256U 10068A   22012.52352885 -.00000202  00000+0  00000+0 0  9996
2 37256  50.4901 291.5098 0017949 191.3321 282.9945  1.00298796 40586
EUTELSAT KA-SAT 9A      
1 37258U 10069A   22013.35700646  .00000075  00000+0  00000+0 0  9990
2 37258   0.0664 257.7241 0001170 287.9074  64.7030  1.00271521 27791
HISPASAT 30W-5          
1 37264U 10070A   22013.42102469 -.00000202  00000+0  00000+0 0  9999
2 37264   0.0157 111.8777 0002260 173.3835 309.1489  1.00271897 36984
KOREASAT 6              
1 37265U 10070B   22013.52193625 -.00000348  00000+0  00000+0 0  9996
2 37265   0.0105  27.9615 0001962 264.7595 124.1309  1.00270173 40484
BEIDOU 8                
1 37384U 11013A   22013.07026037 -.00000179  00000+0  00000+0 0  9990
2 37384  60.0700  55.8029 0021561 192.3606 355.6208  1.00296168 39465
INTELSAT NEW DAWN       
1 37392U 11016A   22013.50536479  .00000169  00000+0  00000+0 0  9994
2 37392   0.0207 128.8425 0000456  22.1899 176.6343  1.00272112 37085
YAHSAT 1A               
1 37393U 11016B   22013.50928961  .00000115  00000+0  00000+0 0  9997
2 37393   0.0222  50.5677 0002724 237.8802  60.3546  1.00270372 26192
SBIRS GEO-1 (USA 230)   
1 37481U 11019A   22013.51199338  .00000005  00000+0  00000+0 0  9995
2 37481   1.8269  15.0483 0001931 277.1343  71.2842  1.00271983 39190
TELSTAR 14R             
1 37602U 11021A   22013.54575838 -.00000266  00000+0  00000+0 0  9999
2 37602   0.0359 311.1061 0003262  24.6720 270.6735  1.00271952 39632
GSAT-8                  
1 37605U 11022A   22013.50981292  .00000098  00000+0  00000+0 0  9996
2 37605   0.0207  90.8687 0008479 182.8807  77.8297  1.00273789 37010
ST-2                    
1 37606U 11022B   22013.51635428 -.00000196  00000+0  00000+0 0  9995
2 37606   0.0190  39.2032 0002618 277.6149  70.0128  1.00265788 39070
CHINASAT 10 (ZX 10)     
1 37677U 11026A   22013.52080243 -.00000338  00000+0  00000+0 0  9995
2 37677   0.0735 249.8157 0002999 334.9227 186.2392  1.00270830 38780
TIANLIAN 1-02           
1 37737U 11032A   22013.64172972 -.00000040  00000+0  00000+0 0  9993
2 37737   2.8013  75.0309 0074922 357.5045  78.4709  1.00272065 38526
GSAT-12                 
1 37746U 11034A   22013.50833021  .00000137  00000+0  00000+0 0  9995
2 37746   0.9912  94.3675 0006442 350.3752 259.1112  1.00272468 27296
SES-3                   
1 37748U 11035A   22013.56664558 -.00000087  00000+0  00000+0 0  9996
2 37748   0.0415 307.3931 0003016 351.9983 274.5970  1.00271800 38403
KAZSAT-2                
1 37749U 11035B   22013.49793340 -.00000184  00000+0  00000+0 0  9999
2 37749   0.0376 220.3841 0001243 132.4443  25.8605  1.00272388 37185
BEIDOU 9                
1 37763U 11038A   22013.57672016 -.00000005  00000+0  00000+0 0  9995
2 37763  54.4728 180.1235 0087128 225.1209  10.6602  1.00266644 38448
ASTRA 1N                
1 37775U 11041A   22013.50248660  .00000133  00000+0  00000+0 0  9990
2 37775   0.0435  27.0890 0003075 320.0174 325.9103  1.00271701 28328
BSAT-3C (JCSAT-110R)    
1 37776U 11041B   22013.52071521 -.00000337  00000+0  00000+0 0  9990
2 37776   0.0357 300.5395 0000629  42.5797  67.2502  1.00270302 34276
PAKSAT-1R               
1 37779U 11042A   22013.50641140  .00000167  00000+0  00000+0 0  9992
2 37779   0.1144 266.9870 0004520  81.1330 345.3073  1.00265760 38272
CHINASAT 1A (ZX 1A)     
1 37804U 11047A   22013.52464003 -.00000324  00000+0  00000+0 0  9995
2 37804   0.0399 205.9669 0001854  86.6736 139.0228  1.00274315 11152
SES-2                   
1 37809U 11049A   22013.52639538 -.00000182  00000+0  00000+0 0  9991
2 37809   0.0429 291.5818 0003250   8.3943 275.4831  1.00271264 37761
ARABSAT-5C              
1 37810U 11049B   22013.50266102  .00000137  00000+0  00000+0 0  9993
2 37810   0.0540 358.1088 0003926 231.7791  84.0206  1.00270030 37714
